P/2010 H3 (SOHO),e,23.6685,78.0450,25.1821,3.068373,0.1833757,0.98518310,0.0000,02/07.8188/2021,2000,g 20.0,2.0
# From MPC 73463
P/2010 H4 (Scotti),e,2.3202,44.7579,179.5548,6.585988,0.0583140,0.26834920,201.5503,12/09.0/2019,2000,g 10.5,4.0
# From MPC 74637
P/2010 H5 (Scotti),e,14.0755,24.8110,175.3576,7.152417,0.0515258,0.15464686,181.5595,12/09.0/2019,2000,g 13.0,2.0
# From MPC 98558
P/2010 J3 (McMillan),e,13.2900,106.4076,157.5412,8.965233,0.0367165,0.72770805,124.4076,12/09.0/2019,2000,g 11.0,4.0
# From MPC 84315
P/2010 JC81 (WISE),e,38.6606,30.8345,12.4761,8.114645,0.0426383,0.77615952,134.5828,12/09.0/2019,2000,g  9.0,4.0
# From MPC 74248
P/2010 T2 (PANSTARRS),e,7.9782,59.3871,354.3880,5.485327,0.0767185,0.32190230,239.0154,12/09.0/2019,2000,g 11.5,4.0
# From MPC 98558
P/2010 TO20 (LINEAR-Grauer),e,2.4799,43.3026,267.0010,5.825364,0.0701002,0.05367908,284.2665,12/09.0/2019,2000,g  9.0,4.0
# From MPC 82316
P/2010 U1 (Boattini),e,8.2139,280.7213,85.8669,6.515684,0.0592603,0.24719508,213.9448,12/09.0/2019,2000,g  9.5,4.0
# From MPC117068
C/2010 U3 (Boattini),e,55.5131,43.0548,88.0837,3230,0.0000054,0.99738495,0.0000,02/26.4173/2019,2000,g  1.0,4.0
# From MPC 79021
P/2010 UH55 (Spacewatch),e,8.0622,233.1232,225.1653,6.647074,0.0575120,0.56415895,181.2921,12/09.0/2019,2000,g 11.0,4.0
# From MPC 75009
P/2010 WK (LINEAR),e,11.4004,11.3144,41.0359,5.757211,0.0713487,0.68955671,239.5076,12/09.0/2019,2000,g 14.5,2.0
# From MPC 82317
P/2011 A2 (Scotti),e,4.4754,54.6722,94.5680,3.104388,0.1801939,0.49938855,229.5730,12/09.0/2019,2000,g 16.5,4.0
# From MPC 84021
P/2011 C2 (Gibbs),e,10.8872,12.1151,161.1404,7.413270,0.0488303,0.26949366,141.2297,12/09.0/2019,2000,g  9.0,4.0
# From MPC 79866
P/2011 FR143 (Lemmon),e,15.9998,190.9446,350.1794,6.852769,0.0549421,0.45180654,175.7144,12/09.0/2019,2000,g 14.0,2.0
# From MPC 82317
P/2011 JB15 (Spacewatch-Boattini),e,19.1457,153.6271,110.8656,7.349626,0.0494659,0.31864276,142.2672,12/09.0/2019,2000,g  9.0,4.0
# From MPC117068
C/2011 KP36 (Spacewatch),e,18.9820,173.3372,180.5864,38.67457,0.0040979,0.87384288,5.2906,12/09.0/2019,2000,g  4.5,4.0
# From MPC 87913
P/2011 N1 (ASH),e,35.7025,77.6121,330.3740,6.252070,0.0630476,0.54315789,173.9835,12/09.0/2019,2000,g 11.5,4.0
# From MPC 75714
P/2011 NO1 (Elenin),e,15.2486,295.7991,263.8476,5.521458,0.0759667,0.77534757,246.1706,12/09.0/2019,2000,g 15.0,4.0
# From MPC 82318
P/2011 P1 (McNaught),e,5.6538,4.2503,348.8606,7.473977,0.0482366,0.32602753,165.6856,12/09.0/2019,2000,g  9.0,4.0
# From MPC 77806
P/2011 Q3 (McNaught),e,6.0549,32.0250,310.9521,4.970826,0.0889327,0.53218088,272.4173,12/09.0/2019,2000,g 13.5,4.0
# From MPC 90269
P/2011 R3 (Novichonok-Gerke),e,19.2245,189.9257,224.5202,4.787316,0.0940949,0.27070521,263.6327,12/09.0/2019,2000,g 11.0,4.0
# From MPC 98558
P/2011 S1 (Gibbs),e,2.6830,218.9340,192.6994,8.594473,0.0391179,0.19972622,76.0182,12/09.0/2019,2000,g  8.0,4.0
# From MPC115880
P/2011 U2 (Bressi),e,10.0707,263.8831,147.6932,4.975834,0.0887984,0.12547095,244.7946,12/09.0/2019,2000,g 10.0,4.0
# From MPC 79022
P/2011 UA134 (Spacewatch-PANSTARRS),e,10.4522,40.4770,32.4974,5.599710,0.0743799,0.62941300,218.6463,12/09.0/2019,2000,g 17.5,4.0
# From MPC 77406
P/2011 V1 (Boattini),e,7.3791,46.8666,269.1973,3.853293,0.1303035,0.55055422,56.4229,12/09.0/2019,2000,g 15.5,4.0
# From MPC 82718
P/2011 W1 (PANSTARRS),e,3.7185,161.7902,282.7184,4.659607,0.0979896,0.28668450,282.4026,12/09.0/2019,2000,g 11.5,4.0
# From MPC 79342
P/2011 Y2 (Boattini),e,6.3717,309.3661,131.9829,6.239340,0.0632406,0.70921002,178.9944,12/09.0/2019,2000,g 15.0,4.0
# From MPC 94669
P/2012 B1 (PANSTARRS),e,7.6193,36.1831,162.6032,6.524506,0.0591402,0.41057230,137.8058,12/09.0/2019,2000,g  9.0,4.0
# From MPC 78590
P/2012 C3 (PANSTARRS),e,9.0920,135.3677,344.9542,9.748681,0.0323806,0.63011148,359.9758,10/06.0/2011,2000,g 13.0,4.0
# From MPC 84931
P/2012 F2 (PANSTARRS),e,14.7359,227.0787,33.1947,6.326314,0.0619410,0.54317726,150.5698,12/09.0/2019,2000,g 12.0,4.0
# From MPC107683
C/2012 F3 (PANSTARRS),h,04/07.6473/2015,11.3366,164.5504,104.2342,1.004348,3.464418,2000,6.5,4.0
# From MPC 79344
P/2012 G1 (PANSTARRS),e,11.6925,282.5440,286.1149,4.172871,0.1156250,0.38072240,359.9500,06/01.0/2012,2000,g 15.0,4.0
# From MPC 80898
P/2012 K3 (Gibbs),e,13.1946,125.8102,172.1106,3.624176,0.1428533,0.42356313,16.2212,12/09.0/2019,2000,g 15.0,4.0
# From MPC112389
C/2012 LP26 (Palomar),h,08/18.3263/2015,25.3492,153.9443,145.2862,1.003104,6.540832,2000,6.5,4.0
# From MPC 88326
P/2012 NJ (La Sagra),e,84.6157,315.5750,338.2985,8.455438,0.0400867,0.84758013,109.6606,12/09.0/2019,2000,g 14.5,4.0
# From MPC 81470
P/2012 O1 (McNaught),e,7.4336,91.9850,238.1984,3.539034,0.1480393,0.59441548,41.6987,12/09.0/2019,2000,g 17.5,4.0
# From MPC 80899
P/2012 O2 (McNaught),e,24.4859,120.6818,183.3580,3.621239,0.1430271,0.53280223,31.0277,12/09.0/2019,2000,g 17.0,4.0
# From MPC 82720
P/2012 O3 (McNaught),e,16.6081,336.4014,344.6739,4.576953,0.1006560,0.64667527,269.1180,12/09.0/2019,2000,g 16.5,4.0
# From MPC 82720
P/2012 S2 (La Sagra),e,8.6877,51.1924,312.5252,4.408542,0.1064784,0.69101177,286.2137,12/09.0/2019,2000,g 17.0,4.0
# From MPC 82720
P/2012 SB6 (Lemmon),e,10.9283,8.2121,14.3742,3.825852,0.1317079,0.40484043,334.5240,12/09.0/2019,2000,g 14.0,4.0
# From MPC 82320
P/2012 T2 (PANSTARRS),e,12.5543,73.7381,310.4975,5.740733,0.0716561,0.16011515,173.7736,12/09.0/2019,2000,g 10.0,4.0
# From MPC 80900
P/2012 T3 (PANSTARRS),e,9.5674,114.4056,195.4141,6.153853,0.0645630,0.61690584,179.4941,12/09.0/2019,2000,g 15.0,4.0
# From MPC 87914
P/2012 TK8 (Tenagra),e,6.3397,288.9680,127.5645,4.135797,0.1171832,0.27418249,279.6902,12/09.0/2019,2000,g 13.0,4.0
# From MPC 82720
P/2012 U2 (PANSTARRS),e,10.7427,185.2515,228.4049,7.146932,0.0515851,0.49721815,133.4713,12/09.0/2019,2000,g 12.5,4.0
# From MPC 84024
P/2012 US27 (Siding Spring),e,39.3220,49.1679,0.8548,5.165562,0.0839514,0.64721021,210.5075,12/09.0/2019,2000,g 13.5,4.0
# From MPC 82721
P/2012 WA34 (Lemmon-PANSTARRS),e,6.1243,94.5099,352.7040,4.776804,0.0944056,0.33926188,237.0017,12/09.0/2019,2000,g 13.5,4.0
# From MPC 84024
P/2013 A2 (Scotti),e,3.3617,355.8211,134.5771,4.012034,0.1226471,0.45430659,306.6617,12/09.0/2019,2000,g 15.5,4.0
# From MPC 82721
P/2013 AL76 (Catalina),e,144.7839,145.9350,27.1603,6.498871,0.0594904,0.68610942,151.7798,12/09.0/2019,2000,g 16.0,4.0
# From MPC115880
C/2013 C2 (Tenagra),e,21.3377,247.5294,309.5021,16.02431,0.0153651,0.42875666,23.7761,12/09.0/2019,2000,g  4.0,4.0
# From MPC 88695
P/2013 EW90 (Tenagra),e,31.7852,160.3062,346.3974,4.116153,0.1180231,0.19499605,308.6518,12/09.0/2019,2000,g 12.0,4.0
# From MPC 91612
P/2013 G1 (Kowalski),e,5.4717,221.4314,51.2946,6.883725,0.0545719,0.51353374,119.3315,12/09.0/2019,2000,g 11.0,4.0
# From MPC102950
C/2013 G3 (PANSTARRS),h,11/16.6127/2014,64.6239,208.0998,76.5811,1.002812,3.852819,2000,9.0,4.0
# From MPC 84025
P/2013 G4 (PANSTARRS),e,5.9162,339.6622,214.7321,4.438323,0.1054085,0.40994531,262.6726,12/09.0/2019,2000,g 15.0,4.0
# From MPC100277
C/2013 G9 (Tenagra),h,01/17.1416/2015,146.2414,35.7790,205.2478,1.001892,5.346489,2000,7.0,4.0
# From MPC 91613
P/2013 J2 (McNaught),e,15.5347,289.4270,37.7096,6.224447,0.0634677,0.65706278,145.7693,12/09.0/2019,2000,g 13.0,4.0
# From MPC 87066
P/2013 J4 (PANSTARRS),e,5.0352,84.0011,118.7706,2.475100,0.2531133,0.23099371,359.9443,11/04.0/2013,2000,g 14.0,4.0
# From MPC 86229
P/2013 N3 (PANSTARRS),e,2.1721,17.5384,323.8043,7.391348,0.0490477,0.59256133,104.2182,12/09.0/2019,2000,g 13.0,4.0
# From MPC 85834
P/2013 N5 (PANSTARRS),e,23.3912,187.1831,176.8807,6.801623,0.0555629,0.73119879,130.7165,12/09.0/2019,2000,g 17.0,4.0
# From MPC 87479
P/2013 O2 (PANSTARRS),e,13.3138,207.2283,214.0277,3.794716,0.1333322,0.44674239,289.2837,12/09.0/2019,2000,g 14.0,4.0
# From MPC 85834
P/2013 P1 (PANSTARRS),e,18.7143,160.6655,137.9967,8.563560,0.0393299,0.60614312,97.3086,12/09.0/2019,2000,g 12.0,4.0
# From MPC111767
C/2013 P3 (Palomar),e,93.8811,177.2112,177.0072,17319,0.0000004,0.99950117,0.0000,11/20.4813/2014,2000,g  5.5,4.0
# From MPC 94671
P/2013 R3 (Catalina-PANSTARRS),e,0.8653,342.0081,11.1433,3.034009,0.1864999,0.27482652,68.5330,12/09.0/2019,2000,g 14.0,4.0
# From unp
P/2013 R3-A (Catalina-PANSTARRS),e,0.8646,341.9749,11.1823,3.033869,0.1865129,0.27479584,68.5606,12/09.0/2019,2000,g  9.0,4.0
# From MPEC 2015-M77
P/2013 R3-B (Catalina-PANSTARRS),e,0.8659,342.0308,11.1171,3.034085,0.1864929,0.27484163,68.5183,12/09.0/2019,2000,g  9.0,4.0
# From MPC 85835
P/2013 T1 (PANSTARRS),e,24.2517,10.1046,346.0591,5.863840,0.0694114,0.62294747,161.2150,12/09.0/2019,2000,g 16.5,4.0
# From MPC 86643
P/2013 T2 (Schwartz),e,9.4564,0.8253,345.4449,3.487865,0.1513089,0.50102773,1.2818,12/09.0/2019,2000,g 16.0,4.0
# From MPC 88696
P/2013 TL117 (Lemmon),e,9.3644,3.3163,112.2496,3.608799,0.1437673,0.68907534,305.1925,12/09.0/2019,2000,g 17.5,4.0
# From MPC110080
C/2013 US10 (Catalina),h,11/16.3449/2015,148.8104,186.3134,340.5537,1.000599,0.823424,2000,4.4,4.0
# From MPC111767
C/2013 V4 (Catalina),e,67.8688,55.6263,40.3650,4802,0.0000030,0.99892064,0.0000,10/05.9609/2015,2000,g  6.0,4.0
# From MPC 91613
P/2013 W1 (PANSTARRS),e,4.6954,117.8494,1.3105,3.490090,0.1511643,0.59277298,318.2278,12/09.0/2019,2000,g 17.5,4.0
# From MPC109141
C/2013 W2 (PANSTARRS),e,4.8458,178.3446,304.1867,9.658459,0.0328354,0.54540646,60.5175,12/09.0/2019,2000,g 13.5,2.0
# From MPC111767
C/2013 X1 (PANSTARRS),h,04/19.7181/2016,163.1880,131.5995,165.1235,1.000341,1.318985,2000,10.5,2.0
# From MPC101095
P/2013 YG46 (Spacewatch),e,7.8569,48.8920,242.4388,3.276836,0.1661583,0.45482985,173.2812,12/09.0/2019,2000,g 10.0,4.0
# From MPC 89728
P/2014 A2 (Hill),e,24.5533,106.6254,356.3149,5.924645,0.0683456,0.64621684,153.1220,12/09.0/2019,2000,g 15.0,4.0
# From MPC 92981
P/2014 A3 (PANSTARRS),e,13.6851,230.3748,212.2626,4.640532,0.0985944,0.24480184,239.1904,12/09.0/2019,2000,g 12.0,4.0
# From MPC108592
